{"type": "FeatureCollection", "features": [ {"type": "Feature", "properties": {"norad_id": 38803, "name": "FENGYUN 1C DEB", "group": "fengyun-1c-debris", "lat": -6.1142135173427175, "lon": -4.196035503961008, "alt_km": 776.6785604838478, "timestamp": "2025-12-16T19:34:24.557632+00:00", "meta": {"OBJECT_NAME": "FENGYUN 1C DEB", "OBJECT_ID": "1999-025EUT", "EPOCH": "2025-12-11T23:13:14.211840", "MEAN_MOTION": 14.23655987, "ECCENTRICITY": 0.006424, "INCLINATION": 99.1403, "RA_OF_ASC_NODE": 349.7804, "ARG_OF_PERICENTER": 38.5359, "MEAN_ANOMALY": 322.0379, "EPHEMERIS_TYPE": 0, "CLASSIFICATION_TYPE": "U", "NORAD_CAT_ID": 38803, "ELEMENT_SET_NO": 999, "REV_AT_EPOCH": 60201, "BSTAR": 0.003165, "MEAN_MOTION_DOT": 7.334e-05, "MEAN_MOTION_DDOT": 0}, "tle": {"line1": "1 38803U 99025EUT 25345.96752560  .00007334  00000+0  31650-2 0  9999", "line2": "2 38803  99.1403 349.7804 0064240  38.5359 322.0379 14.23655987602019"}}, "geometry": {"type": "Point", "coordinates": [-4.196035503961008, -6.1142135173427175]}}, {"type": "Feature", "properties": {"norad_id": 38809, "name": "FENGYUN 1C DEB", "group": "fengyun-1c-debris", "lat": -42.27517151200456, "lon": 172.96119998494055, "alt_km": 844.1841599755271, "timestamp": "2025-12-16T19:34:24.557643+00:00", "meta": {"OBJECT_NAME": "FENGYUN 1C DEB", "OBJECT_ID": "1999-025EUZ", "EPOCH": "2025-12-14T05:32:58.974432", "MEAN_MOTION": 14.18178007, "ECCENTRICITY": 0.02226559, "INCLINATION": 98.5905, "RA_OF_ASC_NODE": 358.3567, "ARG_OF_PERICENTER": 323.6891, "MEAN_ANOMALY": 34.9348, "EPHEMERIS_TYPE": 0, "CLASSIFICATION_TYPE": "U", "NORAD_CAT_ID": 38809, "ELEMENT_SET_NO": 999, "REV_AT_EPOCH": 69227, "BSTAR": 0.00071470667, "MEAN_MOTION_DOT": 1.83e-05, "MEAN_MOTION_DDOT": 0}, "tle": {"line1": "1 38809U 99025EUZ 25348.23123813  .00001830  00000+0  71471-3 0  9992", "line2": "2 38809  98.5905 358.3567 0222655 323.6891  34.9348 14.18178007692271"}}, "geometry": {"type": "Point", "coordinates": [172.96119998494055, -42.27517151200456]}}, {"type": "Feature", "properties": {"norad_id": 38813, "name": "FENGYUN 1C DEB", "group": "fengyun-1c-debris", "lat": -2.549059052302655, "lon": -11.374013090398359, "alt_km": 829.1999698142863, "timestamp": "2025-12-16T19:34:24.557653+00:00", "meta": {"OBJECT_NAME": "FENGYUN 1C DEB", "OBJECT_ID": "1999-025EVD", "EPOCH": "2025-12-13T18:52:41.433888", "MEAN_MOTION": 14.20167427, "ECCENTRICITY": 0.00065107, "INCLINATION": 99.3459, "RA_OF_ASC_NODE": 345.0085, "ARG_OF_PERICENTER": 111.2502, "MEAN_ANOMALY": 248.9369, "EPHEMERIS_TYPE": 0, "CLASSIFICATION_TYPE": "U", "NORAD_CAT_ID": 38813, "ELEMENT_SET_NO": 999, "REV_AT_EPOCH": 48265, "BSTAR": 0.00071362745, "MEAN_MOTION_DOT": 1.474e-05, "MEAN_MOTION_DDOT": 0}, "tle": {"line1": "1 38813U 99025EVD 25347.78659067  .00001474  00000+0  71363-3 0  9995", "line2": "2 38813  99.3459 345.0085 0006510 111.2502 248.9369 14.20167427482653"}}, "geometry": {"type": "Point", "coordinates": [-11.374013090398359, -2.549059052302655]}}, {"type": "Feature", "properties": {"norad_id": 38817, "name": "FENGYUN 1C DEB", "group": "fengyun-1c-debris", "lat": 20.434699095167037, "lon": 43.89402425078538, "alt_km": 1165.093000195524, "timestamp": "2025-12-16T19:34:24.557663+00:00", "meta": {"OBJECT_NAME": "FENGYUN 1C DEB", "OBJECT_ID": "1999-025EVH", "EPOCH": "2025-12-15T21:35:28.563360", "MEAN_MOTION": 13.57702829, "ECCENTRICITY": 0.02914897, "INCLINATION": 98.6005, "RA_OF_ASC_NODE": 219.8586, "ARG_OF_PERICENTER": 36.1735, "MEAN_ANOMALY": 325.8742, "EPHEMERIS_TYPE": 0, "CLASSIFICATION_TYPE": "U", "NORAD_CAT_ID": 38817, "ELEMENT_SET_NO": 999, "REV_AT_EPOCH": 65877, "BSTAR": 0.0018611629, "MEAN_MOTION_DOT": 1.729e-05, "MEAN_MOTION_DDOT": 0}, "tle": {"line1": "1 38817U 99025EVH 25349.89963615  .00001729  00000+0  18612-2 0  9990", "line2": "2 38817  98.6005 219.8586 0291489  36.1735 325.8742 13.57702829658772"}}, "geometry": {"type": "Point", "coordinates": [43.89402425078538, 20.434699095167037]}}, {"type": "Feature", "properties": {"norad_id": 38818, "name": "FENGYUN 1C DEB", "group": "fengyun-1c-debris", "lat": -16.77109425687282, "lon": -135.54160369577735, "alt_km": 785.677280361655, "timestamp": "2025-12-16T19:34:24.557673+00:00", "meta": {"OBJECT_NAME": "FENGYUN 1C DEB", "OBJECT_ID": "1999-025EVJ", "EPOCH": "2025-12-14T22:27:08.695584", "MEAN_MOTION": 14.39493128, "ECCENTRICITY": 0.00885268, "INCLINATION": 98.3002, "RA_OF_ASC_NODE": 45.159, "ARG_OF_PERICENTER": 92.9316, "MEAN_ANOMALY": 85.8685, "EPHEMERIS_TYPE": 0, "CLASSIFICATION_TYPE": "U", "NORAD_CAT_ID": 38818, "ELEMENT_SET_NO": 999, "REV_AT_EPOCH": 67279, "BSTAR": 0.00036465317, "MEAN_MOTION_DOT": 1.147e-05, "MEAN_MOTION_DDOT": 0}, "tle": {"line1": "1 38818U 99025EVJ 25348.93551731  .00001147  00000+0  36465-3 0  9998", "line2": "2 38818  98.3002  45.1590 0088526  92.9316  85.8685 14.39493128672790"}}, "geometry": {"type": "Point", "coordinates": [-135.54160369577735, -16.77109425687282]}}, {"type": "Feature", "properties": {"norad_id": 38819, "name": "FENGYUN 1C DEB", "group": "fengyun-1c-debris", "lat": -42.48222512284322, "lon": 155.53574125002888, "alt_km": 789.9446012671178, "timestamp": "2025-12-16T19:34:24.557684+00:00", "meta": {"OBJECT_NAME": "FENGYUN 1C DEB", "OBJECT_ID": "1999-025EVK", "EPOCH": "2025-12-15T18:00:00.476064", "MEAN_MOTION": 14.19377038, "ECCENTRICITY": 0.00798744, "INCLINATION": 98.6182, "RA_OF_ASC_NODE": 342.4822, "ARG_OF_PERICENTER": 185.758, "MEAN_ANOMALY": 354.9815, "EPHEMERIS_TYPE": 0, "CLASSIFICATION_TYPE": "U", "NORAD_CAT_ID": 38819, "ELEMENT_SET_NO": 999, "REV_AT_EPOCH": 63520, "BSTAR": 0.00040158709, "MEAN_MOTION_DOT": 8.29e-06, "MEAN_MOTION_DDOT": 0}, "tle": {"line1": "1 38819U 99025EVK 25349.75000551  .00000829  00000+0  40159-3 0  9990", "line2": "2 38819  98.6182 342.4822 0079874 185.7580 354.9815 14.19377038635203"}}, "geometry": {"type": "Point", "coordinates": [155.53574125002888, -42.48222512284322]}}, {"type": "Feature", "properties": {"norad_id": 38824, "name": "FENGYUN 1C DEB", "group": "fengyun-1c-debris", "lat": 6.218491251379638, "lon": -54.431021522524766, "alt_km": 780.7020720718338, "timestamp": "2025-12-16T19:34:24.557694+00:00", "meta": {"OBJECT_NAME": "FENGYUN 1C DEB", "OBJECT_ID": "1999-025EVQ", "EPOCH": "2025-11-20T14:24:21.461760", "MEAN_MOTION": 14.13875773, "ECCENTRICITY": 0.00960414, "INCLINATION": 99.2955, "RA_OF_ASC_NODE": 97.2934, "ARG_OF_PERICENTER": 263.2679, "MEAN_ANOMALY": 95.7556, "EPHEMERIS_TYPE": 0, "CLASSIFICATION_TYPE": "U", "NORAD_CAT_ID": 38824, "ELEMENT_SET_NO": 999, "REV_AT_EPOCH": 68824, "BSTAR": 0.0027703315, "MEAN_MOTION_DOT": 5.443e-05, "MEAN_MOTION_DDOT": 0}, "tle": {"line1": "1 38824U 99025EVQ 25324.60024840  .00005443  00000+0  27703-2 0  9996", "line2": "2 38824  99.2955  97.2934 0096041 263.2679  95.7556 14.13875773688246"}}, "geometry": {"type": "Point", "coordinates": [-54.431021522524766, 6.218491251379638]}}, {"type": "Feature", "properties": {"norad_id": 38827, "name": "FENGYUN 1C DEB", "group": "fengyun-1c-debris", "lat": 0.3894829999117795, "lon": 13.558987554819259, "alt_km": 704.6113159389333, "timestamp": "2025-12-16T19:34:24.557704+00:00", "meta": {"OBJECT_NAME": "FENGYUN 1C DEB", "OBJECT_ID": "1999-025EVT", "EPOCH": "2025-12-15T08:22:40.312416", "MEAN_MOTION": 14.32871633, "ECCENTRICITY": 0.02162225, "INCLINATION": 98.3869, "RA_OF_ASC_NODE": 12.1956, "ARG_OF_PERICENTER": 305.0884, "MEAN_ANOMALY": 53.0194, "EPHEMERIS_TYPE": 0, "CLASSIFICATION_TYPE": "U", "NORAD_CAT_ID": 38827, "ELEMENT_SET_NO": 999, "REV_AT_EPOCH": 61097, "BSTAR": 0.00067109262, "MEAN_MOTION_DOT": 2.325e-05, "MEAN_MOTION_DDOT": 0}, "tle": {"line1": "1 38827U 99025EVT 25349.34907769  .00002325  00000+0  67109-3 0  9998", "line2": "2 38827  98.3869  12.1956 0216222 305.0884  53.0194 14.32871633610973"}}, "geometry": {"type": "Point", "coordinates": [13.558987554819259, 0.3894829999117795]}}, {"type": "Feature", "properties": {"norad_id": 38829, "name": "FENGYUN 1C DEB", "group": "fengyun-1c-debris", "lat": -47.76621562936901, "lon": 16.437009624833305, "alt_km": 857.3037247460179, "timestamp": "2025-12-16T19:34:24.557714+00:00", "meta": {"OBJECT_NAME": "FENGYUN 1C DEB", "OBJECT_ID": "1999-025EVV", "EPOCH": "2025-12-12T18:40:24.452256", "MEAN_MOTION": 14.09216687, "ECCENTRICITY": 0.0041168, "INCLINATION": 98.7498, "RA_OF_ASC_NODE": 2.7487, "ARG_OF_PERICENTER": 30.5355, "MEAN_ANOMALY": 329.82, "EPHEMERIS_TYPE": 0, "CLASSIFICATION_TYPE": "U", "NORAD_CAT_ID": 38829, "ELEMENT_SET_NO": 999, "REV_AT_EPOCH": 64133, "BSTAR": 0.00086306808, "MEAN_MOTION_DOT": 1.47e-05, "MEAN_MOTION_DDOT": 0}, "tle": {"line1": "1 38829U 99025EVV 25346.77806079  .00001470  00000+0  86307-3 0  9997", "line2": "2 38829  98.7498   2.7487 0041168  30.5355 329.8200 14.09216687641331"}}, "geometry": {"type": "Point", "coordinates": [16.437009624833305, -47.76621562936901]}}, {"type": "Feature", "properties": {"norad_id": 38832, "name": "FENGYUN 1C DEB", "group": "fengyun-1c-debris", "lat": -39.663575606711284, "lon": 43.04480377783857, "alt_km": 865.2225243341836, "timestamp": "2025-12-16T19:34:24.557726+00:00", "meta": {"OBJECT_NAME": "FENGYUN 1C DEB", "OBJECT_ID": "1999-025EVY", "EPOCH": "2025-12-06T01:35:41.081280", "MEAN_MOTION": 14.04461067, "ECCENTRICITY": 0.00842955, "INCLINATION": 99.2666, "RA_OF_ASC_NODE": 24.2995, "ARG_OF_PERICENTER": 61.4582, "MEAN_ANOMALY": 299.5038, "EPHEMERIS_TYPE": 0, "CLASSIFICATION_TYPE": "U", "NORAD_CAT_ID": 38832, "ELEMENT_SET_NO": 999, "REV_AT_EPOCH": 63664, "BSTAR": 0.0018423355, "MEAN_MOTION_DOT": 2.987e-05, "MEAN_MOTION_DDOT": 0}, "tle": {"line1": "1 38832U 99025EVY 25340.06644770  .00002987  00000+0  18423-2 0  9992", "line2": "2 38832  99.2666  24.2995 0084295  61.4582 299.5038 14.04461067636643"}}, "geometry": {"type": "Point", "coordinates": [43.04480377783857, -39.663575606711284]}}]}